NORAD_CAT_ID,OBJECT_NAME,OBJECT_TYPE,EPOCH,MEAN_MOTION,ECCENTRICITY,INCLINATION,RA_OF_ASC_NODE,ARG_OF_PERICENTER,MEAN_ANOMALY,BSTAR,MEAN_MOTION_DOT,MEAN_MOTION_DDOT,TLE_LINE0,TLE_LINE1,TLE_LINE2,SEMIMAJOR_AXIS,PERIOD,APOGEE,PERIGEE,DECAYED
53410.0,STARLINK-4492,PAYLOAD,2023-03-20 18:19:26,15.08846116,0.0001117,53.2162,304.5429,74.4525,285.659,0.00012608,1.72e-05,0.0,0 STARLINK-4492,1 53410U 22097Y   23079.76349617  .00001720  00000-0  12608-3 0  9997,2 53410  53.2162 304.5429 0001117  74.4525 285.6590 15.08846116 34864,6917.862,95.437,540.499,538.954,0.0
53410.0,STARLINK-4492,PAYLOAD,2023-03-20 21:30:12,15.08849622,0.0001122,53.2166,303.9481,74.7702,285.3414,0.00011217,1.498e-05,0.0,0 STARLINK-4492,1 53410U 22097Y   23079.89597408  .00001498  00000-0  11217-3 0  9991,2 53410  53.2166 303.9481 0001122  74.7702 285.3414 15.08849622 34390,6917.851,95.437,540.492,538.94,0.0
53410.0,STARLINK-4492,PAYLOAD,2023-03-20 23:05:35,15.08851281,0.000108,53.2167,303.651,74.1731,285.938,0.0002033,2.95e-05,0.0,0 STARLINK-4492,1 53410U 22097Y   23079.96221298  .00002950  00000-0  20330-3 0  9990,2 53410  53.2167 303.6510 0001080  74.1731 285.9380 15.08851281 34897,6917.846,95.437,540.458,538.964,0.0
53410.0,STARLINK-4492,PAYLOAD,2023-03-21 21:20:59,15.08844691,0.0001062,53.2157,299.4869,78.8031,281.3081,0.00017763,2.541e-05,0.0,0 STARLINK-4492,1 53410U 22097Y   23080.88957407  .00002541  00000-0  17763-3 0  9993,2 53410  53.2157 299.4869 0001062  78.8031 281.3081 15.08844691 34546,6917.866,95.437,540.466,538.996,0.0
53410.0,STARLINK-4492,PAYLOAD,2023-03-22 19:36:23,15.08835537,0.0001109,53.216,295.3251,81.4182,278.6936,0.00015107,2.117e-05,0.0,0 STARLINK-4492,1 53410U 22097Y   23081.81693732  .00002117  00000-0  15107-3 0  9994,2 53410  53.2160 295.3251 0001109  81.4182 278.6936 15.08835537 34681,6917.894,95.438,540.526,538.992,0.0
53410.0,STARLINK-4492,PAYLOAD,2023-03-22 21:11:46,15.0884742,9.32e-05,53.2164,295.0284,87.6057,272.5041,1.6781e-05,-2.1e-07,0.0,0 STARLINK-4492,1 53410U 22097Y   23081.88317149 -.00000021  00000-0  16781-4 0  9999,2 53410  53.2164 295.0284 0000932  87.6057 272.5041 15.08847420 35180,6917.858,95.437,540.367,539.078,0.0
53410.0,STARLINK-4492,PAYLOAD,2023-03-22 22:47:08,15.08847568,9.7e-05,53.2159,294.7292,80.1359,279.9743,2.1503e-05,5.5e-07,0.0,0 STARLINK-4492,1 53410U 22097Y   23081.94940865  .00000055  00000-0  21503-4 0  9997,2 53410  53.2159 294.7292 0000970  80.1359 279.9743 15.08847568 34704,6917.857,95.437,540.393,539.051,0.0
53410.0,STARLINK-4492,PAYLOAD,2023-03-23 21:02:33,15.08837048,8.96e-05,53.2152,290.5678,93.6207,266.4888,4.4118e-05,4.14e-06,0.0,0 STARLINK-4492,1 53410U 22097Y   23082.87677738  .00000414  00000-0  44118-4 0  9992,2 53410  53.2152 290.5678 0000896  93.6207 266.4888 15.08837048 34845,6917.889,95.438,540.374,539.135,0.0
53410.0,STARLINK-4492,PAYLOAD,2023-03-23 22:37:56,15.08843468,9.26e-05,53.2154,290.2698,93.1949,266.9149,0.00013954,1.934e-05,0.0,0 STARLINK-4492,1 53410U 22097Y   23082.94301424  .00001934  00000-0  13954-3 0  9997,2 53410  53.2154 290.2698 0000926  93.1949 266.9149 15.08843468 34857,6917.87,95.437,540.375,539.094,0.0
53410.0,STARLINK-4492,PAYLOAD,2023-03-24 22:28:43,15.0884643,9.82e-05,53.2152,285.8083,89.3457,270.7648,0.00016677,2.368e-05,0.0,0 STARLINK-4492,1 53410U 22097Y   23083.93661285  .00002368  00000-0  16677-3 0  9998,2 53410  53.2152 285.8083 0000982  89.3457 270.7648 15.08846430 35496,6917.861,95.437,540.405,539.046,0.0
53410.0,STARLINK-4492,PAYLOAD,2023-03-25 20:44:08,15.08825843,8.5e-05,53.2159,281.6439,110.2468,249.8616,-0.00010965,-2.032e-05,0.0,0 STARLINK-4492,1 53410U 22097Y   23084.86398946 -.00002032  00000-0 -10965-3 0  9996,2 53410  53.2159 281.6439 0000850 110.2468 249.8616 15.08825843 35141,6917.924,95.438,540.377,539.201,0.0
53410.0,STARLINK-4492,PAYLOAD,2023-03-26 18:59:32,15.08838447,9.55e-05,53.2166,277.4828,60.4172,299.6916,0.00011494,1.542e-05,0.0,0 STARLINK-4492,1 53410U 22097Y   23085.79135340  .00001542  00000-0  11494-3 0  9997,2 53410  53.2166 277.4828 0000955  60.4172 299.6916 15.08838447 35283,6917.885,95.438,540.411,539.089,0.0
53410.0,STARLINK-4492,PAYLOAD,2023-03-26 22:10:18,15.08845495,9.57e-05,53.2163,276.8852,73.6215,286.4882,0.00025912,3.839e-05,0.0,0 STARLINK-4492,1 53410U 22097Y   23085.92382997  .00003839  00000-0  25912-3 0  9995,2 53410  53.2163 276.8852 0000957  73.6215 286.4882 15.08845495 35799,6917.864,95.437,540.391,539.067,0.0
53410.0,STARLINK-4492,PAYLOAD,2023-03-27 12:28:47,15.08852358,0.000108,53.2156,274.211,60.4483,299.6617,0.00060147,9.301e-05,0.0,0 STARLINK-4492,1 53410U 22097Y   23086.51999124  .00009301  00000-0  60147-3 0  9996,2 53410  53.2156 274.2110 0001080  60.4483 299.6617 15.08852358 35887,6917.843,95.437,540.455,538.96,0.0
53410.0,STARLINK-4492,PAYLOAD,2023-03-27 22:01:05,15.08877477,0.0001127,53.2152,272.4265,59.1769,300.9334,0.0010221,0.00016033,0.0,0 STARLINK-4492,1 53410U 22097Y   23086.91742161  .00016033  00000-0  10221-2 0  9994,2 53410  53.2152 272.4265 0001127  59.1769 300.9334 15.08877477 35452,6917.766,95.435,540.41,538.851,0.0
53410.0,STARLINK-4492,PAYLOAD,2023-03-28 12:19:33,15.08853326,9.15e-05,53.2158,269.751,29.7236,330.3808,0.00012612,1.721e-05,0.0,0 STARLINK-4492,1 53410U 22097Y   23087.51358032  .00001721  00000-0  12612-3 0  9996,2 53410  53.2158 269.7510 0000915  29.7236 330.3808 15.08853326 36031,6917.84,95.437,540.338,539.072,0.0
53410.0,STARLINK-4492,PAYLOAD,2023-03-28 15:30:19,15.08856076,0.0001022,53.2155,269.1559,53.8776,306.2311,0.00028392,4.236e-05,0.0,0 STARLINK-4492,1 53410U 22097Y   23087.64605943  .00004236  00000-0  28392-3 0  9992,2 53410  53.2155 269.1559 0001022  53.8776 306.2311 15.08856076 35565,6917.831,95.437,540.403,538.989,0.0
53410.0,STARLINK-4492,PAYLOAD,2023-03-28 18:41:05,15.08857174,9.45e-05,53.2156,268.5607,66.3849,293.7242,0.00038004,5.769e-05,0.0,0 STARLINK-4492,1 53410U 22097Y   23087.77853788  .00005769  00000-0  38004-3 0  9991,2 53410  53.2156 268.5607 0000945  66.3849 293.7242 15.08857174 36076,6917.828,95.436,540.347,539.039,0.0
53410.0,STARLINK-4492,PAYLOAD,2023-03-29 18:31:52,15.08850608,9.95e-05,53.2158,264.1005,78.9876,281.1228,0.00056575,8.73e-05,0.0,0 STARLINK-4492,1 53410U 22097Y   23088.77213936  .00008730  00000-0  56575-3 0  9991,2 53410  53.2158 264.1005 0000995  78.9876 281.1228 15.08850608 35738,6917.848,95.437,540.401,539.025,0.0
53410.0,STARLINK-4492,PAYLOAD,2023-03-30 04:04:11,15.08842439,6.1e-05,53.2157,262.3164,89.4567,270.6495,0.00011919,1.61e-05,0.0,0 STARLINK-4492,1 53410U 22097Y   23089.16957923  .00001610  00000-0  11919-3 0  9999,2 53410  53.2157 262.3164 0000610  89.4567 270.6495 15.08842439 35799,6917.873,95.437,540.16,539.316,0.0
53410.0,STARLINK-4492,PAYLOAD,2023-03-30 18:22:40,15.08839089,0.0001255,53.2157,259.6402,79.4034,280.71,0.00032554,4.897e-05,0.0,0 STARLINK-4492,1 53410U 22097Y   23089.76574402  .00004897  00000-0  32554-3 0  9990,2 53410  53.2157 259.6402 0001255  79.4034 280.7100 15.08839089 36374,6917.883,95.438,540.616,538.88,0.0
53410.0,STARLINK-4492,PAYLOAD,2023-03-31 03:54:58,15.08835311,7.55e-05,53.2158,257.8578,217.3139,142.7801,-4.4647e-05,-9.98e-06,0.0,0 STARLINK-4492,1 53410U 22097Y   23090.16317793 -.00000998  00000-0 -44647-4 0  9991,2 53410  53.2158 257.8578 0000755 217.3139 142.7801 15.08835311 35943,6917.895,95.438,540.282,539.237,0.0
53410.0,STARLINK-4492,PAYLOAD,2023-03-31 19:48:50,15.08866789,0.0001018,53.2149,254.8821,87.2386,272.8722,0.0020183,0.00032003,0.0,0 STARLINK-4492,1 53410U 22097Y   23090.82558039  .00032003  00000-0  20183-2 0  9991,2 53410  53.2149 254.8821 0001018  87.2386 272.8722 15.08866789 36044,6917.799,95.436,540.368,538.959,0.0
53410.0,STARLINK-4492,PAYLOAD,2023-04-01 03:45:45,15.08844728,3.29e-05,53.2149,253.3953,159.2923,200.8082,2.2858e-05,7.6e-07,0.0,0 STARLINK-4492,1 53410U 22097Y   23091.15677830  .00000076  00000-0  22858-4 0  9997,2 53410  53.2149 253.3953 0000329 159.2923 200.8082 15.08844728 36099,6917.866,95.437,539.959,539.503,0.0
53410.0,STARLINK-4492,PAYLOAD,2023-04-01 10:07:18,15.08841387,0.0001656,53.2137,252.2064,94.8422,265.276,0.00062255,9.634e-05,0.0,0 STARLINK-4492,1 53410U 22097Y   23091.42174600  .00009634  00000-0  62255-3 0  9997,2 53410  53.2137 252.2064 0001656  94.8422 265.2760 15.08841387 36624,6917.876,95.437,540.887,538.596,0.0
53410.0,STARLINK-4492,PAYLOAD,2023-04-01 16:28:51,15.08832575,0.0001111,53.2149,251.0165,104.8216,255.2899,0.0013507,0.00021269,0.0,0 STARLINK-4492,1 53410U 22097Y   23091.68671001  .00021269  00000-0  13507-2 0  9995,2 53410  53.2149 251.0165 0001111 104.8216 255.2899 15.08832575 36176,6917.903,95.438,540.537,539.0,0.0
53410.0,STARLINK-4492,PAYLOAD,2023-04-02 03:36:34,15.08836621,0.0001171,53.2147,248.9353,94.9725,265.14,0.0010542,0.00016528,0.0,0 STARLINK-4492,1 53410U 22097Y   23092.15039377  .00016528  00000-0  10542-2 0  9990,2 53410  53.2147 248.9353 0001171  94.9725 265.1400 15.08836621 36240,6917.891,95.438,540.566,538.946,0.0
53410.0,STARLINK-4492,PAYLOAD,2023-04-02 09:58:06,15.08841211,0.0001287,53.2146,247.7453,94.8896,265.2243,0.00085006,0.00013267,0.0,0 STARLINK-4492,1 53410U 22097Y   23092.41535443  .00013267  00000-0  85006-3 0  9999,2 53410  53.2146 247.7453 0001287  94.8896 265.2243 15.08841211 36778,6917.877,95.437,540.632,538.851,0.0
53410.0,STARLINK-4492,PAYLOAD,2023-04-02 17:55:02,15.0885022,0.0001263,53.2151,246.2586,93.7445,266.3691,0.00087348,0.00013645,0.0,0 STARLINK-4492,1 53410U 22097Y   23092.74655277  .00013645  00000-0  87348-3 0  9994,2 53410  53.2151 246.2586 0001263  93.7445 266.3691 15.08850220 36822,6917.849,95.437,540.588,538.84,0.0
53410.0,STARLINK-4492,PAYLOAD,2023-04-03 03:27:21,15.08846077,0.0001248,53.2155,244.4761,74.5447,285.5683,0.00072487,0.00011269,0.0,0 STARLINK-4492,1 53410U 22097Y   23093.14399393  .00011269  00000-0  72487-3 0  9991,2 53410  53.2155 244.4761 0001248  74.5447 285.5683 15.08846077 36394,6917.862,95.437,540.59,538.863,0.0
